CCSDS_OMM_VERS = 2.0
CREATION_DATE  = 
ORIGINATOR     = 

OBJECT_NAME    = CZ-2C R/B
OBJECT_ID      = 2022-132E
CENTER_NAME    = EARTH
REF_FRAME      = TEME
TIME_SYSTEM    = UTC
MEAN_ELEMENT_THEORY = SGP/SGP4

EPOCH          = 2026-01-11T13:52:32.601504
MEAN_MOTION    = 15.56994552
ECCENTRICITY   = .0017355
INCLINATION    = 97.2950
RA_OF_ASC_NODE = 13.3938
ARG_OF_PERICENTER = 307.8230
MEAN_ANOMALY   = 52.1454

EPHEMERIS_TYPE = 0
CLASSIFICATION_TYPE = U
NORAD_CAT_ID   = 54039
ELEMENT_SET_NO = 999
REV_AT_EPOCH   = 18147
BSTAR          = .44443844E-3
MEAN_MOTION_DOT = .32257E-3
MEAN_MOTION_DDOT = 0

CCSDS_OMM_VERS = 2.0
CREATION_DATE  = 
ORIGINATOR     = 

OBJECT_NAME    = GSLV R/B
OBJECT_ID      = 2022-138AN
CENTER_NAME    = EARTH
REF_FRAME      = TEME
TIME_SYSTEM    = UTC
MEAN_ELEMENT_THEORY = SGP/SGP4

EPOCH          = 2026-01-11T11:36:31.687776
MEAN_MOTION    = 14.96320677
ECCENTRICITY   = .00219367
INCLINATION    = 87.3832
RA_OF_ASC_NODE = 185.5108
ARG_OF_PERICENTER = 5.8802
MEAN_ANOMALY   = 354.2682

EPHEMERIS_TYPE = 0
CLASSIFICATION_TYPE = U
NORAD_CAT_ID   = 54149
ELEMENT_SET_NO = 999
REV_AT_EPOCH   = 17537
BSTAR          = .30686513E-3
MEAN_MOTION_DOT = .3512E-4
MEAN_MOTION_DDOT = 0

CCSDS_OMM_VERS = 2.0
CREATION_DATE  = 
ORIGINATOR     = 

OBJECT_NAME    = XRISM
OBJECT_ID      = 2023-137A
CENTER_NAME    = EARTH
REF_FRAME      = TEME
TIME_SYSTEM    = UTC
MEAN_ELEMENT_THEORY = SGP/SGP4

EPOCH          = 2026-01-11T04:10:14.871072
MEAN_MOTION    = 15.10736736
ECCENTRICITY   = .000788
INCLINATION    = 31.0026
RA_OF_ASC_NODE = 295.4588
ARG_OF_PERICENTER = 184.4705
MEAN_ANOMALY   = 175.5864

EPHEMERIS_TYPE = 0
CLASSIFICATION_TYPE = U
NORAD_CAT_ID   = 57800
ELEMENT_SET_NO = 999
REV_AT_EPOCH   = 12908
BSTAR          = .32773613E-3
MEAN_MOTION_DOT = .5668E-4
MEAN_MOTION_DDOT = 0

CCSDS_OMM_VERS = 2.0
CREATION_DATE  = 
ORIGINATOR     = 

OBJECT_NAME    = ACS3
OBJECT_ID      = 2024-077B
CENTER_NAME    = EARTH
REF_FRAME      = TEME
TIME_SYSTEM    = UTC
MEAN_ELEMENT_THEORY = SGP/SGP4

EPOCH          = 2026-01-11T15:14:45.052224
MEAN_MOTION    = 13.87082051
ECCENTRICITY   = .00618956
INCLINATION    = 97.2443
RA_OF_ASC_NODE = 325.5602
ARG_OF_PERICENTER = 262.6319
MEAN_ANOMALY   = 96.7806

EPHEMERIS_TYPE = 0
CLASSIFICATION_TYPE = U
NORAD_CAT_ID   = 59588
ELEMENT_SET_NO = 999
REV_AT_EPOCH   = 8628
BSTAR          = .19668632E-1
MEAN_MOTION_DOT = .23439E-3
MEAN_MOTION_DDOT = 0

CCSDS_OMM_VERS = 2.0
CREATION_DATE  = 
ORIGINATOR     = 

OBJECT_NAME    = SZ-21 MODULE
OBJECT_ID      = 2025-246C
CENTER_NAME    = EARTH
REF_FRAME      = TEME
TIME_SYSTEM    = UTC
MEAN_ELEMENT_THEORY = SGP/SGP4

EPOCH          = 2026-01-11T15:03:29.644416
MEAN_MOTION    = 15.64332597
ECCENTRICITY   = .00016144
INCLINATION    = 41.4741
RA_OF_ASC_NODE = 193.4843
ARG_OF_PERICENTER = 139.2924
MEAN_ANOMALY   = 220.8037

EPHEMERIS_TYPE = 0
CLASSIFICATION_TYPE = U
NORAD_CAT_ID   = 66515
ELEMENT_SET_NO = 999
REV_AT_EPOCH   = 912
BSTAR          = .29945885E-3
MEAN_MOTION_DOT = .29244E-3
MEAN_MOTION_DDOT = 0

