CZ-2C R/B               
1 54039U 22132E   26011.57815511  .00032257  00000+0  44444-3 0  9995
2 54039  97.2950  13.3938 0017355 307.8230  52.1454 15.56994552181479
GSLV R/B                
1 54149U 22138AN  26011.48370009  .00003512  00000+0  30687-3 0  9997
2 54149  87.3832 185.5108 0021936   5.8802 354.2682 14.96320677175376
XRISM                   
1 57800U 23137A   26011.17378323  .00005668  00000+0  32774-3 0  9990
2 57800  31.0026 295.4588 0007880 184.4705 175.5864 15.10736736129082
ACS3                    
1 59588U 24077B   26011.63524366  .00023439  00000+0  19669-1 0  9992
2 59588  97.2443 325.5602 0061895 262.6319  96.7806 13.87082051 86282
SZ-21 MODULE            
1 66515U 25246C   26011.62742644  .00029244  00000+0  29946-3 0  9990
2 66515  41.4741 193.4843 0001614 139.2924 220.8037 15.64332597  9129
